{
  "type": "FeatureCollection",
  "features": [
    {
      "type": "Feature",
      "properties": {
        "norad_id": 30749,
        "name": "FENGYUN 1C DEB",
        "group": "fengyun-1c-debris",
        "lat": 19.552408826140315,
        "lon": -162.3362313854317,
        "alt_km": 880.2036933954796,
        "timestamp": "2025-12-13T16:48:32.988880+00:00",
        "meta_object_name": "FENGYUN 1C DEB",
        "meta_object_id": "1999-025ATK",
        "meta_epoch": "2025-12-13T00:36:10.077696",
        "meta_mean_motion": 13.99837594,
        "meta_eccentricity": 0.00554119,
        "meta_inclination": 98.8876,
        "meta_ra_of_asc_node": 13.8224,
        "meta_arg_of_pericenter": 231.6452,
        "meta_mean_anomaly": 127.9726,
        "meta_ephemeris_type": 0,
        "meta_classification_type": "U",
        "meta_norad_cat_id": 30749,
        "meta_element_set_no": 999,
        "meta_rev_at_epoch": 95970,
        "meta_bstar": 0.0001349532,
        "meta_mean_motion_dot": 1.57e-06,
        "meta_mean_motion_ddot": 0,
        "tle_line1": "1 30749U 99025ATK 25347.02511664  .00000157  00000+0  13495-3 0  9991",
        "tle_line2": "2 30749  98.8876  13.8224 0055411 231.6452 127.9726 13.99837594959702"
      },
      "geometry": {
        "type": "Point",
        "coordinates": [
          -162.3362313854317,
          19.552408826140315
        ]
      }
    },
    {
      "type": "Feature",
      "properties": {
        "norad_id": 30750,
        "name": "FENGYUN 1C DEB",
        "group": "fengyun-1c-debris",
        "lat": 11.483879031377791,
        "lon": -115.90288346003682,
        "alt_km": 788.0184223495417,
        "timestamp": "2025-12-13T16:48:32.988890+00:00",
        "meta_object_name": "FENGYUN 1C DEB",
        "meta_object_id": "1999-025ATL",
        "meta_epoch": "2025-12-10T23:18:25.803936",
        "meta_mean_motion": 14.28577548,
        "meta_eccentricity": 0.0040844,
        "meta_inclination": 98.9196,
        "meta_ra_of_asc_node": 59.4798,
        "meta_arg_of_pericenter": 105.194,
        "meta_mean_anomaly": 74.1614,
        "meta_ephemeris_type": 0,
        "meta_classification_type": "U",
        "meta_norad_cat_id": 30750,
        "meta_element_set_no": 999,
        "meta_rev_at_epoch": 96756,
        "meta_bstar": 0.0027086,
        "meta_mean_motion_dot": 6.817e-05,
        "meta_mean_motion_ddot": 0,
        "tle_line1": "1 30750U 99025ATL 25344.97113199  .00006817  00000+0  27086-2 0  9994",
        "tle_line2": "2 30750  98.9196  59.4798 0040844 105.1940  74.1614 14.28577548967568"
      },
      "geometry": {
        "type": "Point",
        "coordinates": [
          -115.90288346003682,
          11.483879031377791
        ]
      }
    },
    {
      "type": "Feature",
      "properties": {
        "norad_id": 30751,
        "name": "FENGYUN 1C DEB",
        "group": "fengyun-1c-debris",
        "lat": -34.35042305927498,
        "lon": -139.22043627364567,
        "alt_km": 867.0439890781963,
        "timestamp": "2025-12-13T16:48:32.988900+00:00",
        "meta_object_name": "FENGYUN 1C DEB",
        "meta_object_id": "1999-025ATM",
        "meta_epoch": "2025-12-12T02:36:47.377152",
        "meta_mean_motion": 14.1519627,
        "meta_eccentricity": 0.00524243,
        "meta_inclination": 98.8552,
        "meta_ra_of_asc_node": 45.3161,
        "meta_arg_of_pericenter": 98.3509,
        "meta_mean_anomaly": 292.1176,
        "meta_ephemeris_type": 0,
        "meta_classification_type": "U",
        "meta_norad_cat_id": 30751,
        "meta_element_set_no": 999,
        "meta_rev_at_epoch": 96267,
        "meta_bstar": 0.0022600098,
        "meta_mean_motion_dot": 4.407e-05,
        "meta_mean_motion_ddot": 0,
        "tle_line1": "1 30751U 99025ATM 25346.10888168  .00004407  00000+0  22600-2 0  9997",
        "tle_line2": "2 30751  98.8552  45.3161 0052424  98.3509 292.1176 14.15196270962670"
      },
      "geometry": {
        "type": "Point",
        "coordinates": [
          -139.22043627364567,
          -34.35042305927498
        ]
      }
    },
    {
      "type": "Feature",
      "properties": {
        "norad_id": 30753,
        "name": "FENGYUN 1C DEB",
        "group": "fengyun-1c-debris",
        "lat": 6.419224628379122,
        "lon": 25.27632899842184,
        "alt_km": 813.5574387953438,
        "timestamp": "2025-12-13T16:48:32.988910+00:00",
        "meta_object_name": "FENGYUN 1C DEB",
        "meta_object_id": "1999-025ATP",
        "meta_epoch": "2025-12-12T20:22:49.156320",
        "meta_mean_motion": 14.1264518,
        "meta_eccentricity": 0.00553231,
        "meta_inclination": 98.8077,
        "meta_ra_of_asc_node": 25.439,
        "meta_arg_of_pericenter": 354.8263,
        "meta_mean_anomaly": 5.233,
        "meta_ephemeris_type": 0,
        "meta_classification_type": "U",
        "meta_norad_cat_id": 30753,
        "meta_element_set_no": 999,
        "meta_rev_at_epoch": 96353,
        "meta_bstar": 0.0014564592,
        "meta_mean_motion_dot": 2.694e-05,
        "meta_mean_motion_ddot": 0,
        "tle_line1": "1 30753U 99025ATP 25346.84918005  .00002694  00000+0  14565-2 0  9991",
        "tle_line2": "2 30753  98.8077  25.4390 0055323 354.8263   5.2330 14.12645180963532"
      },
      "geometry": {
        "type": "Point",
        "coordinates": [
          25.27632899842184,
          6.419224628379122
        ]
      }
    },
    {
      "type": "Feature",
      "properties": {
        "norad_id": 30755,
        "name": "FENGYUN 1C DEB",
        "group": "fengyun-1c-debris",
        "lat": -57.64000098290473,
        "lon": 148.98716597529892,
        "alt_km": 653.7292434894616,
        "timestamp": "2025-12-13T16:48:32.988932+00:00",
        "meta_object_name": "FENGYUN 1C DEB",
        "meta_object_id": "1999-025ATR",
        "meta_epoch": "2025-12-12T23:12:24.574176",
        "meta_mean_motion": 14.44955477,
        "meta_eccentricity": 0.01508479,
        "meta_inclination": 98.2589,
        "meta_ra_of_asc_node": 341.5253,
        "meta_arg_of_pericenter": 268.4036,
        "meta_mean_anomaly": 117.9569,
        "meta_ephemeris_type": 0,
        "meta_classification_type": "U",
        "meta_norad_cat_id": 30755,
        "meta_element_set_no": 999,
        "meta_rev_at_epoch": 98448,
        "meta_bstar": 0.0009878452,
        "meta_mean_motion_dot": 3.912e-05,
        "meta_mean_motion_ddot": 0,
        "tle_line1": "1 30755U 99025ATR 25346.96695109  .00003912  00000+0  98785-3 0  9994",
        "tle_line2": "2 30755  98.2589 341.5253 0150847 268.4036 117.9569 14.44955477984481"
      },
      "geometry": {
        "type": "Point",
        "coordinates": [
          148.98716597529892,
          -57.64000098290473
        ]
      }
    },
    {
      "type": "Feature",
      "properties": {
        "norad_id": 30756,
        "name": "FENGYUN 1C DEB",
        "group": "fengyun-1c-debris",
        "lat": 59.124293777344654,
        "lon": -109.52688452897252,
        "alt_km": 875.1235882812143,
        "timestamp": "2025-12-13T16:48:32.988967+00:00",
        "meta_object_name": "FENGYUN 1C DEB",
        "meta_object_id": "1999-025ATS",
        "meta_epoch": "2025-12-12T03:08:07.313280",
        "meta_mean_motion": 14.1827116,
        "meta_eccentricity": 0.00710878,
        "meta_inclination": 98.9907,
        "meta_ra_of_asc_node": 53.5291,
        "meta_arg_of_pericenter": 317.973,
        "meta_mean_anomaly": 71.1189,
        "meta_ephemeris_type": 0,
        "meta_classification_type": "U",
        "meta_norad_cat_id": 30756,
        "meta_element_set_no": 999,
        "meta_rev_at_epoch": 96396,
        "meta_bstar": 0.0022053291,
        "meta_mean_motion_dot": 4.61e-05,
        "meta_mean_motion_ddot": 0,
        "tle_line1": "1 30756U 99025ATS 25346.13064020  .00004610  00000+0  22053-2 0  9996",
        "tle_line2": "2 30756  98.9907  53.5291 0071087 317.9730  71.1189 14.18271160963964"
      },
      "geometry": {
        "type": "Point",
        "coordinates": [
          -109.52688452897252,
          59.124293777344654
        ]
      }
    },
    {
      "type": "Feature",
      "properties": {
        "norad_id": 30758,
        "name": "FENGYUN 1C DEB",
        "group": "fengyun-1c-debris",
        "lat": 30.855202946008433,
        "lon": -68.14866954441797,
        "alt_km": 856.8240098911838,
        "timestamp": "2025-12-13T16:48:32.988979+00:00",
        "meta_object_name": "FENGYUN 1C DEB",
        "meta_object_id": "1999-025ATU",
        "meta_epoch": "2025-12-12T01:24:08.144640",
        "meta_mean_motion": 14.17106185,
        "meta_eccentricity": 0.0038424,
        "meta_inclination": 99.0177,
        "meta_ra_of_asc_node": 104.7428,
        "meta_arg_of_pericenter": 5.4157,
        "meta_mean_anomaly": 51.0361,
        "meta_ephemeris_type": 0,
        "meta_classification_type": "U",
        "meta_norad_cat_id": 30758,
        "meta_element_set_no": 999,
        "meta_rev_at_epoch": 96481,
        "meta_bstar": 0.0016713703,
        "meta_mean_motion_dot": 3.345e-05,
        "meta_mean_motion_ddot": 0,
        "tle_line1": "1 30758U 99025ATU 25346.05842760  .00003345  00000+0  16714-2 0  9995",
        "tle_line2": "2 30758  99.0177 104.7428 0038424   5.4157  51.0361 14.17106185964815"
      },
      "geometry": {
        "type": "Point",
        "coordinates": [
          -68.14866954441797,
          30.855202946008433
        ]
      }
    }
  ]
}